NESS                    
1 58020U 23155E   26068.76452457  .00019469  00000+0  74047-3 0  9996
2 58020  97.5941 152.6141 0006891 179.8776 180.2465 15.26794015133307
STARLINK-30953          
1 58491U 23186U   26067.99302535 -.00001936  00000+0 -60878-4 0  9997
2 58491  42.9984 271.4328 0000858 255.1282 104.9475 15.27577627127782
